{"fetched_at":"2026-03-29T02:12:04Z","count":15717,"tles":[{"name":"COSMOS 2590","line1":"1 64527U 25131D   26087.57382681 -.00000292  00000+0  00000+0 0  9991","line2":"2 64527   0.1568  45.3760 3657937  53.9716  40.0796  1.00258081  2803","category":"Other"}]}